CCSDS_OMM_VERS = 2.0
CREATION_DATE  = 
ORIGINATOR     = 

OBJECT_NAME    = ARIANE 5 R/B
OBJECT_ID      = 2004-049H
CENTER_NAME    = EARTH
REF_FRAME      = TEME
TIME_SYSTEM    = UTC
MEAN_ELEMENT_THEORY = SGP/SGP4

EPOCH          = 2025-10-27T21:35:11.099328
MEAN_MOTION    = 14.84874433
ECCENTRICITY   = .00858544
INCLINATION    = 98.2508
RA_OF_ASC_NODE = 99.5496
ARG_OF_PERICENTER = 61.8360
MEAN_ANOMALY   = 299.1494

EPHEMERIS_TYPE = 0
CLASSIFICATION_TYPE = U
NORAD_CAT_ID   = 28499
ELEMENT_SET_NO = 999
REV_AT_EPOCH   = 12608
BSTAR          = .16044797E-3
MEAN_MOTION_DOT = .1393E-4
MEAN_MOTION_DDOT = 0

CCSDS_OMM_VERS = 2.0
CREATION_DATE  = 
ORIGINATOR     = 

OBJECT_NAME    = CZ-2D R/B
OBJECT_ID      = 2005-024B
CENTER_NAME    = EARTH
REF_FRAME      = TEME
TIME_SYSTEM    = UTC
MEAN_ELEMENT_THEORY = SGP/SGP4

EPOCH          = 2025-10-27T22:24:56.844000
MEAN_MOTION    = 15.50141273
ECCENTRICITY   = .00074095
INCLINATION    = 97.3687
RA_OF_ASC_NODE = 307.2738
ARG_OF_PERICENTER = 132.2956
MEAN_ANOMALY   = 227.8925

EPHEMERIS_TYPE = 0
CLASSIFICATION_TYPE = U
NORAD_CAT_ID   = 28738
ELEMENT_SET_NO = 999
REV_AT_EPOCH   = 11915
BSTAR          = .56147998E-3
MEAN_MOTION_DOT = .31641E-3
MEAN_MOTION_DDOT = 0

CCSDS_OMM_VERS = 2.0
CREATION_DATE  = 
ORIGINATOR     = 

OBJECT_NAME    = ALOS (DAICHI)
OBJECT_ID      = 2006-002A
CENTER_NAME    = EARTH
REF_FRAME      = TEME
TIME_SYSTEM    = UTC
MEAN_ELEMENT_THEORY = SGP/SGP4

EPOCH          = 2025-10-27T20:47:17.482848
MEAN_MOTION    = 14.69256724
ECCENTRICITY   = .00017737
INCLINATION    = 98.1015
RA_OF_ASC_NODE = 252.7028
ARG_OF_PERICENTER = 55.9070
MEAN_ANOMALY   = 304.2304

EPHEMERIS_TYPE = 0
CLASSIFICATION_TYPE = U
NORAD_CAT_ID   = 28931
ELEMENT_SET_NO = 999
REV_AT_EPOCH   = 5397
BSTAR          = .42693253E-3
MEAN_MOTION_DOT = .2468E-4
MEAN_MOTION_DDOT = 0

CCSDS_OMM_VERS = 2.0
CREATION_DATE  = 
ORIGINATOR     = 

OBJECT_NAME    = H-2A R/B
OBJECT_ID      = 2006-002B
CENTER_NAME    = EARTH
REF_FRAME      = TEME
TIME_SYSTEM    = UTC
MEAN_ELEMENT_THEORY = SGP/SGP4

EPOCH          = 2025-10-27T21:58:39.641376
MEAN_MOTION    = 15.13353319
ECCENTRICITY   = .00553907
INCLINATION    = 98.2288
RA_OF_ASC_NODE = 71.9797
ARG_OF_PERICENTER = 333.1836
MEAN_ANOMALY   = 26.6532

EPHEMERIS_TYPE = 0
CLASSIFICATION_TYPE = U
NORAD_CAT_ID   = 28932
ELEMENT_SET_NO = 999
REV_AT_EPOCH   = 7433
BSTAR          = .5638552E-3
MEAN_MOTION_DOT = .10367E-3
MEAN_MOTION_DDOT = 0

CCSDS_OMM_VERS = 2.0
CREATION_DATE  = 
ORIGINATOR     = 

OBJECT_NAME    = RESURS-DK 1
OBJECT_ID      = 2006-021A
CENTER_NAME    = EARTH
REF_FRAME      = TEME
TIME_SYSTEM    = UTC
MEAN_ELEMENT_THEORY = SGP/SGP4

EPOCH          = 2025-10-27T22:00:22.776192
MEAN_MOTION    = 15.11785673
ECCENTRICITY   = .00069181
INCLINATION    = 69.9335
RA_OF_ASC_NODE = 220.2213
ARG_OF_PERICENTER = 297.7171
MEAN_ANOMALY   = 62.3292

EPHEMERIS_TYPE = 0
CLASSIFICATION_TYPE = U
NORAD_CAT_ID   = 29228
ELEMENT_SET_NO = 999
REV_AT_EPOCH   = 6745
BSTAR          = .22842043E-3
MEAN_MOTION_DOT = .3804E-4
MEAN_MOTION_DDOT = 0

CCSDS_OMM_VERS = 2.0
CREATION_DATE  = 
ORIGINATOR     = 

OBJECT_NAME    = CZ-4B R/B
OBJECT_ID      = 2006-046C
CENTER_NAME    = EARTH
REF_FRAME      = TEME
TIME_SYSTEM    = UTC
MEAN_ELEMENT_THEORY = SGP/SGP4

EPOCH          = 2025-10-27T13:14:10.885632
MEAN_MOTION    = 15.15198781
ECCENTRICITY   = .00347585
INCLINATION    = 97.5799
RA_OF_ASC_NODE = 340.8179
ARG_OF_PERICENTER = 11.2412
MEAN_ANOMALY   = 348.9589

EPHEMERIS_TYPE = 0
CLASSIFICATION_TYPE = U
NORAD_CAT_ID   = 29507
ELEMENT_SET_NO = 999
REV_AT_EPOCH   = 3987
BSTAR          = .30538403E-3
MEAN_MOTION_DOT = .5752E-4
MEAN_MOTION_DDOT = 0

CCSDS_OMM_VERS = 2.0
CREATION_DATE  = 
ORIGINATOR     = 

OBJECT_NAME    = CZ-2C R/B
OBJECT_ID      = 2007-010B
CENTER_NAME    = EARTH
REF_FRAME      = TEME
TIME_SYSTEM    = UTC
MEAN_ELEMENT_THEORY = SGP/SGP4

EPOCH          = 2025-10-27T22:10:55.874784
MEAN_MOTION    = 14.20182647
ECCENTRICITY   = .00582636
INCLINATION    = 98.3946
RA_OF_ASC_NODE = 55.8885
ARG_OF_PERICENTER = 321.1214
MEAN_ANOMALY   = 38.5780

EPHEMERIS_TYPE = 0
CLASSIFICATION_TYPE = U
NORAD_CAT_ID   = 31114
ELEMENT_SET_NO = 999
REV_AT_EPOCH   = 96087
BSTAR          = .11992678E-3
MEAN_MOTION_DOT = .219E-5
MEAN_MOTION_DDOT = 0

CCSDS_OMM_VERS = 2.0
CREATION_DATE  = 
ORIGINATOR     = 

OBJECT_NAME    = COSMO-SKYMED 1
OBJECT_ID      = 2007-023A
CENTER_NAME    = EARTH
REF_FRAME      = TEME
TIME_SYSTEM    = UTC
MEAN_ELEMENT_THEORY = SGP/SGP4

EPOCH          = 2025-10-27T22:57:04.047840
MEAN_MOTION    = 14.95282097
ECCENTRICITY   = .00013115
INCLINATION    = 97.8876
RA_OF_ASC_NODE = 126.0681
ARG_OF_PERICENTER = 80.5585
MEAN_ANOMALY   = 279.5784

EPHEMERIS_TYPE = 0
CLASSIFICATION_TYPE = U
NORAD_CAT_ID   = 31598
ELEMENT_SET_NO = 999
REV_AT_EPOCH   = 99505
BSTAR          = .32381989E-3
MEAN_MOTION_DOT = .3507E-4
MEAN_MOTION_DDOT = 0

CCSDS_OMM_VERS = 2.0
CREATION_DATE  = 
ORIGINATOR     = 

OBJECT_NAME    = COSMOS 2428
OBJECT_ID      = 2007-029A
CENTER_NAME    = EARTH
REF_FRAME      = TEME
TIME_SYSTEM    = UTC
MEAN_ELEMENT_THEORY = SGP/SGP4

EPOCH          = 2025-10-27T22:22:15.656160
MEAN_MOTION    = 14.12894121
ECCENTRICITY   = .00017398
INCLINATION    = 70.9365
RA_OF_ASC_NODE = 122.0492
ARG_OF_PERICENTER = 124.1504
MEAN_ANOMALY   = 235.9782

EPHEMERIS_TYPE = 0
CLASSIFICATION_TYPE = U
NORAD_CAT_ID   = 31792
ELEMENT_SET_NO = 999
REV_AT_EPOCH   = 94534
BSTAR          = -.95645658E-4
MEAN_MOTION_DOT = -.226E-5
MEAN_MOTION_DDOT = 0

CCSDS_OMM_VERS = 2.0
CREATION_DATE  = 
ORIGINATOR     = 

OBJECT_NAME    = SL-16 R/B
OBJECT_ID      = 2007-029B
CENTER_NAME    = EARTH
REF_FRAME      = TEME
TIME_SYSTEM    = UTC
MEAN_ELEMENT_THEORY = SGP/SGP4

EPOCH          = 2025-10-27T21:02:57.755040
MEAN_MOTION    = 14.14804063
ECCENTRICITY   = .00025442
INCLINATION    = 70.9735
RA_OF_ASC_NODE = 91.5598
ARG_OF_PERICENTER = 262.7700
MEAN_ANOMALY   = 259.0366

EPHEMERIS_TYPE = 0
CLASSIFICATION_TYPE = U
NORAD_CAT_ID   = 31793
ELEMENT_SET_NO = 999
REV_AT_EPOCH   = 94658
BSTAR          = -.28581231E-4
MEAN_MOTION_DOT = -.103E-5
MEAN_MOTION_DDOT = 0

CCSDS_OMM_VERS = 2.0
CREATION_DATE  = 
ORIGINATOR     = 

OBJECT_NAME    = KORONAS-FOTON
OBJECT_ID      = 2009-003A
CENTER_NAME    = EARTH
REF_FRAME      = TEME
TIME_SYSTEM    = UTC
MEAN_ELEMENT_THEORY = SGP/SGP4

EPOCH          = 2025-10-27T18:20:06.525024
MEAN_MOTION    = 15.39676446
ECCENTRICITY   = .00106618
INCLINATION    = 82.4325
RA_OF_ASC_NODE = 53.6795
ARG_OF_PERICENTER = 274.8480
MEAN_ANOMALY   = 85.1548

EPHEMERIS_TYPE = 0
CLASSIFICATION_TYPE = U
NORAD_CAT_ID   = 33504
ELEMENT_SET_NO = 999
REV_AT_EPOCH   = 92526
BSTAR          = .37724982E-3
MEAN_MOTION_DOT = .14961E-3
MEAN_MOTION_DDOT = 0

CCSDS_OMM_VERS = 2.0
CREATION_DATE  = 
ORIGINATOR     = 

OBJECT_NAME    = CZ-2C R/B
OBJECT_ID      = 2011-030B
CENTER_NAME    = EARTH
REF_FRAME      = TEME
TIME_SYSTEM    = UTC
MEAN_ELEMENT_THEORY = SGP/SGP4

EPOCH          = 2025-10-27T20:16:56.817984
MEAN_MOTION    = 14.80654802
ECCENTRICITY   = .00546214
INCLINATION    = 97.8337
RA_OF_ASC_NODE = 255.9956
ARG_OF_PERICENTER = 63.3908
MEAN_ANOMALY   = 349.6194

EPHEMERIS_TYPE = 0
CLASSIFICATION_TYPE = U
NORAD_CAT_ID   = 37731
ELEMENT_SET_NO = 999
REV_AT_EPOCH   = 77043
BSTAR          = .30782274E-3
MEAN_MOTION_DOT = .2372E-4
MEAN_MOTION_DDOT = 0

