ARIANE 5 R/B            
1 28499U 04049H   25300.89943402  .00001393  00000+0  16045-3 0  9992
2 28499  98.2508  99.5496 0085854  61.8360 299.1494 14.84874433126083
CZ-2D R/B               
1 28738U 05024B   25300.93399125  .00031641  00000+0  56148-3 0  9991
2 28738  97.3687 307.2738 0007409 132.2956 227.8925 15.50141273119159
ALOS (DAICHI)           
1 28931U 06002A   25300.86617457  .00002468  00000+0  42693-3 0  9991
2 28931  98.1015 252.7028 0001773  55.9070 304.2304 14.69256724 53975
H-2A R/B                
1 28932U 06002B   25300.91573659  .00010367  00000+0  56386-3 0  9994
2 28932  98.2288  71.9797 0055390 333.1836  26.6532 15.13353319 74337
RESURS-DK 1             
1 29228U 06021A   25300.91693028  .00003804  00000+0  22842-3 0  9995
2 29228  69.9335 220.2213 0006918 297.7171  62.3292 15.11785673 67450
CZ-4B R/B               
1 29507U 06046C   25300.55151488  .00005752  00000+0  30538-3 0  9996
2 29507  97.5799 340.8179 0034758  11.2412 348.9589 15.15198781 39870
CZ-2C R/B               
1 31114U 07010B   25300.92425781  .00000219  00000+0  11993-3 0  9993
2 31114  98.3946  55.8885 0058263 321.1214  38.5780 14.20182647960874
COSMO-SKYMED 1          
1 31598U 07023A   25300.95629685  .00003507  00000+0  32382-3 0  9993
2 31598  97.8876 126.0681 0001311  80.5585 279.5784 14.95282097995051
COSMOS 2428             
1 31792U 07029A   25300.93212565 -.00000226  00000+0 -95646-4 0  9998
2 31792  70.9365 122.0492 0001739 124.1504 235.9782 14.12894121945345
SL-16 R/B               
1 31793U 07029B   25300.87705735 -.00000103  00000+0 -28581-4 0  9996
2 31793  70.9735  91.5598 0002544 262.7700 259.0366 14.14804063946586
KORONAS-FOTON           
1 33504U 09003A   25300.76396441  .00014961  00000+0  37725-3 0  9994
2 33504  82.4325  53.6795 0010661 274.8480  85.1548 15.39676446925269
CZ-2C R/B               
1 37731U 11030B   25300.84510206  .00002372  00000+0  30782-3 0  9998
2 37731  97.8337 255.9956 0054621  63.3908 349.6194 14.80654802770433
